{
    "links": {
        "self": "http://www.neowsapp.com/rest/v1/neo/3686086?api_key=iIulBulltgU6a56xZRHN4H3l9WmuAYTsLGpBGhQ2"
    },
    "id": "3686086",
    "neo_reference_id": "3686086",
    "name": "(2014 QO433)",
    "designation": "2014 QO433",
    "nasa_jpl_url": "http://ssd.jpl.nasa.gov/sbdb.cgi?sstr=3686086",
    "absolute_magnitude_h": 23.7,
    "estimated_diameter": {
        "kilometers": {
            "estimated_diameter_min": 0.0483676488,
            "estimated_diameter_max": 0.1081533507
        },
        "meters": {
            "estimated_diameter_min": 48.3676488219,
            "estimated_diameter_max": 108.1533506775
        },
        "miles": {
            "estimated_diameter_min": 0.0300542543,
            "estimated_diameter_max": 0.0672033557
        },
        "feet": {
            "estimated_diameter_min": 158.6865169607,
            "estimated_diameter_max": 354.8338390368
        }
    },
    "is_potentially_hazardous_asteroid": false,
    "close_approach_data": [
        {
            "close_approach_date": "2014-09-07",
            "close_approach_date_full": "2014-Sep-07 15:14",
            "epoch_date_close_approach": 1410102840000,
            "relative_velocity": {
                "kilometers_per_second": "6.8949200353",
                "kilometers_per_hour": "24821.7121269852",
                "miles_per_hour": "15423.2466269037"
            },
            "miss_distance": {
                "astronomical": "0.2469044758",
                "lunar": "96.0458410862",
                "kilometers": "36936383.673146546",
                "miles": "22951204.5529964948"
            },
            "orbiting_body": "Earth"
        }
    ],
    "orbital_data": {
        "orbit_id": "3",
        "orbit_determination_date": "2017-04-06 08:38:51",
        "first_observation_date": "2014-08-28",
        "last_observation_date": "2014-09-03",
        "data_arc_in_days": 6,
        "observations_used": 8,
        "orbit_uncertainty": "8",
        "minimum_orbit_intersection": ".243525",
        "jupiter_tisserand_invariant": "3.410",
        "epoch_osculation": "2456899.5",
        "eccentricity": ".4671714031304136",
        "semi_major_axis": "2.301344843126505",
        "inclination": "12.23392255481584",
        "ascending_node_longitude": "145.6798146286293",
        "orbital_period": "1275.178485891164",
        "perihelion_distance": "1.226222343676154",
        "perihelion_argument": "213.5721010445731",
        "aphelion_distance": "3.376467342576856",
        "perihelion_time": "2456926.373206067167",
        "mean_anomaly": "352.413333277483",
        "mean_motion": ".2823134204216224",
        "equinox": "J2000",
        "orbit_class": {
            "orbit_class_type": "AMO",
            "orbit_class_description": "Near-Earth asteroid orbits similar to that of 1221 Amor",
            "orbit_class_range": "1.017 AU < q (perihelion) < 1.3 AU"
        }
    },
    "is_sentry_object": false
}